[{"OBJECT_NAME":"JILIN-1 06","OBJECT_ID":"2017-074C","EPOCH":"2026-03-09T22:46:57.173376","MEAN_MOTION":15.32444387,"ECCENTRICITY":0.00061285,"INCLINATION":97.4715,"RA_OF_ASC_NODE":171.0354,"ARG_OF_PERICENTER":223.0031,"MEAN_ANOMALY":137.0732,"EPHEMERIS_TYPE":0,"CLASSIFICATION_TYPE":"U","NORAD_CAT_ID":43024,"ELEMENT_SET_NO":999,"REV_AT_EPOCH":45863,"BSTAR":0.00028431628,"MEAN_MOTION_DOT":8.833e-5,"MEAN_MOTION_DDOT":0},{"OBJECT_NAME":"STARLINK-31099","OBJECT_ID":"2024-011S","EPOCH":"2026-03-09T03:19:32.511936","MEAN_MOTION":15.30196831,"ECCENTRICITY":9.56e-5,"INCLINATION":53.1619,"RA_OF_ASC_NODE":16.3855,"ARG_OF_PERICENTER":100.9975,"MEAN_ANOMALY":259.1133,"EPHEMERIS_TYPE":0,"CLASSIFICATION_TYPE":"U","NORAD_CAT_ID":58781,"ELEMENT_SET_NO":999,"REV_AT_EPOCH":12018,"BSTAR":3.4553716e-5,"MEAN_MOTION_DOT":6.64e-6,"MEAN_MOTION_DDOT":0}]
